NORAD_CAT_ID,OBJECT_NAME,OBJECT_TYPE,EPOCH,MEAN_MOTION,ECCENTRICITY,INCLINATION,RA_OF_ASC_NODE,ARG_OF_PERICENTER,MEAN_ANOMALY,BSTAR,MEAN_MOTION_DOT,MEAN_MOTION_DDOT,TLE_LINE0,TLE_LINE1,TLE_LINE2,SEMIMAJOR_AXIS,PERIOD,APOGEE,PERIGEE,DECAYED
50194.0,STARLINK-3269,PAYLOAD,2022-01-17 22:00:00,15.7318913,0.0001307,53.2148,215.1499,77.9363,254.5358,0.00038669,0.00053973,0.0,0 STARLINK-3269,1 50194U 21125AQ  22017.91667824  .00053973  00000-0  38669-3 0  9997,2 50194  53.2148 215.1499 0001307  77.9363 254.5358 15.73189130  7615,6727.926,91.534,350.671,348.912,0.0
50194.0,STARLINK-3269,PAYLOAD,2022-01-18 14:00:01,15.73198924,9.8e-05,53.2147,211.8488,90.92,59.4396,0.00025187,0.00034873,0.0,0 STARLINK-3269,1 50194U 21125AQ  22018.58334491  .00034873  00000-0  25187-3 0  9991,2 50194  53.2147 211.8488 0000980  90.9200  59.4396 15.73198924  7723,6727.898,91.533,350.423,349.10400000000016,0.0
50194.0,STARLINK-3269,PAYLOAD,2022-01-18 22:00:00,15.7320658,0.0001037,53.215,210.2012,71.6796,167.6287,0.00042177,0.00059006,0.0,0 STARLINK-3269,1 50194U 21125AQ  22018.91667824  .00059006  00000-0  42177-3 0  9990,2 50194  53.2150 210.2012 0001037  71.6796 167.6287 15.73206580  3694,6727.876,91.533,350.439,349.0440000000001,0.0
50194.0,STARLINK-3269,PAYLOAD,2022-01-19 14:00:01,15.73262438,0.0001137,53.2152,206.9001,80.6842,336.5501,-0.00030245,-0.00042963,0.0,0 STARLINK-3269,1 50194U 21125AQ  22019.58334491 -.00042963  00000-0 -30245-3 0  9994,2 50194  53.2152 206.9001 0001137  80.6842 336.5501 15.73262438  7873,6727.717,91.53,350.347,348.81699999999995,0.0
50194.0,STARLINK-3269,PAYLOAD,2022-01-19 22:00:00,15.7317741,0.0001085999999999,53.2149,205.2523,65.1001,81.1346,0.00058599,0.00082349,0.0,0 STARLINK-3269,1 50194U 21125AQ  22019.91667824  .00082349  00000-0  58599-3 0  9992,2 50194  53.2149 205.2523 0001086  65.1001  81.1346 15.73177410  3699,6727.96,91.534,350.555,349.094,0.0
50194.0,STARLINK-3269,PAYLOAD,2022-01-20 14:00:01,15.73181772,0.0001333,53.215,201.9514,81.89,242.1886,-0.00043739,-0.0006150999999999,0.0,0 STARLINK-3269,1 50194U 21125AQ  22020.58334491 -.00061510  00000-0 -43739-3 0  9997,2 50194  53.2150 201.9514 0001333  81.8900 242.1886 15.73181772  3719,6727.946999999999,91.534,350.709,348.915,0.0
50194.0,STARLINK-3269,PAYLOAD,2022-01-20 22:00:00,15.73118141,0.0001449,53.2153,200.3039,70.5849,342.3838,0.00058082,0.00081401,0.0,0 STARLINK-3269,1 50194U 21125AQ  22020.91667824  .00081401  00000-0  58082-3 0  9999,2 50194  53.2153 200.3039 0001449  70.5849 342.3838 15.73118141  8087,6728.129,91.538,350.968,349.019,0.0
50194.0,STARLINK-3269,PAYLOAD,2022-01-21 08:00:01,15.73142439,0.0001355,53.2155,198.2399,76.5478,177.5087,0.00052963,0.00074185,0.0,0 STARLINK-3269,1 50194U 21125AQ  22021.33334491  .00074185  00000-0  52963-3 0  9990,2 50194  53.2155 198.2399 0001355  76.5478 177.5087 15.73142439  8152,6728.059,91.537,350.836,349.01300000000015,0.0
50194.0,STARLINK-3269,PAYLOAD,2022-01-21 14:00:01,15.73195686,0.0001458,53.2157,197.0034,76.6683,154.0433,2.1157e-05,2.349e-05,0.0,0 STARLINK-3269,1 50194U 21125AQ  22021.58334491  .00002349  00000-0  21157-4 0  9992,2 50194  53.2157 197.0034 0001458  76.6683 154.0433 15.73195686  3703,6727.906999999997,91.533,350.75300000000016,348.792,0.0
50194.0,STARLINK-3269,PAYLOAD,2022-01-21 22:00:00,15.73181852,0.0001543,53.2153,195.3556,65.661,253.9882,0.0005262999999999,0.00073837,0.0,0 STARLINK-3269,1 50194U 21125AQ  22021.91667824  .00073837  00000-0  52630-3 0  9997,2 50194  53.2153 195.3556 0001543  65.6610 253.9882 15.73181852  8243,6727.946999999999,91.534,350.85,348.774,0.0
50194.0,STARLINK-3269,PAYLOAD,2022-01-22 14:00:01,15.73297254,0.0001351,53.2156,192.0549,73.109,64.4471,-0.00048636,-0.00068607,0.0,0 STARLINK-3269,1 50194U 21125AQ  22022.58334491 -.00068607  00000-0 -48636-3 0  9994,2 50194  53.2156 192.0549 0001351  73.1090  64.4471 15.73297254  8350,6727.618,91.528,350.392,348.574,0.0
50194.0,STARLINK-3269,PAYLOAD,2022-01-22 22:00:00,15.73199328,0.00013,53.2157,190.4069,58.4038,168.18200000000004,0.00057508,0.00080867,0.0,0 STARLINK-3269,1 50194U 21125AQ  22022.91667824  .00080867  00000-0  57508-3 0  9998,2 50194  53.2157 190.4069 0001300  58.4038 168.1820 15.73199328  3686,6727.897,91.533,350.63699999999994,348.88699999999994,0.0
50194.0,STARLINK-3269,PAYLOAD,2022-01-23 06:00:00,15.73221004,0.000131,53.2159,188.7553,67.8607,247.692,-0.00016003,-0.00023038,0.0,0 STARLINK-3269,1 50194U 21125AQ  22023.25001157 -.00023038  00000-0 -16003-3 0  9991,2 50194  53.2159 188.7553 0001310  67.8607 247.6920 15.73221004  8454,6727.835,91.532,350.582,348.819,0.0
50194.0,STARLINK-3269,PAYLOAD,2022-01-23 14:00:01,15.73252501,0.0001391,53.216,187.1063,65.4209,339.0603,-0.00078062,-0.00109012,0.0,0 STARLINK-3269,1 50194U 21125AQ  22023.58334491 -.00109012  00000-0 -78062-3 0  9997,2 50194  53.2160 187.1063 0001391  65.4209 339.0603 15.73252501  3697,6727.745,91.53,350.546,348.675,0.0
50194.0,STARLINK-3269,PAYLOAD,2022-01-23 22:00:00,15.73146918,0.0001381,53.2154,185.4582,54.3237,79.1202,0.00055578,0.00077929,0.0,0 STARLINK-3269,1 50194U 21125AQ  22023.91667824  .00077929  00000-0  55578-3 0  9999,2 50194  53.2154 185.4582 0001381  54.3237  79.1202 15.73146918  3684,6728.047,91.536,350.841,348.982,0.0
50194.0,STARLINK-3269,PAYLOAD,2022-01-24 06:00:02,15.73171144,0.0001192,53.2154,183.8068,61.3849,160.9663,0.00045913,0.0006422999999999,0.0,0 STARLINK-3269,1 50194U 21125AQ  22024.25002315  .00064230  00000-0  45913-3 0  9998,2 50194  53.2154 183.8068 0001192  61.3849 160.9663 15.73171144  8619,6727.977,91.535,350.644,349.04,0.0
50194.0,STARLINK-3269,PAYLOAD,2022-01-24 14:00:01,15.73229008,0.0001213,53.2155,182.1582,59.7484,251.4432,-9.8886e-05,-0.00014491,0.0,0 STARLINK-3269,1 50194U 21125AQ  22024.58334491 -.00014491  00000-0 -98886-4 0  9991,2 50194  53.2155 182.1582 0001213  59.7484 251.4432 15.73229008  3699,6727.812,91.531,350.494,348.861,0.0
50194.0,STARLINK-3269,PAYLOAD,2022-01-24 22:00:00,15.73212212,0.000124,53.2154,180.5099,45.0403,355.1175,-0.00011116,-0.00016198,0.0,0 STARLINK-3269,1 50194U 21125AQ  22024.91667824 -.00016198  00000-0 -11116-3 0  9993,2 50194  53.2154 180.5099 0001240  45.0403 355.1175 15.73212212  8715,6727.86,91.532,350.56,348.891,0.0
50194.0,STARLINK-3269,PAYLOAD,2022-01-25 14:00:01,15.73256759,0.0001113,53.2157,177.2097,43.848,174.1688,-0.00078729,-0.00109942,0.0,0 STARLINK-3269,1 50194U 21125AQ  22025.58334491 -.00109942  00000-0 -78729-3 0  9991,2 50194  53.2157 177.2097 0001113  43.8480 174.1688 15.73256759  3671,6727.733,91.53,350.347,348.85,0.0
50194.0,STARLINK-3269,PAYLOAD,2022-01-25 22:00:00,15.73205273,0.0001054,53.2173,175.5499,61.2303,245.5466,-1.4813e-06,-8.27e-06,0.0,0 STARLINK-3269,1 50194U 21125AQ  22025.91667824 -.00000827  00000-0 -14813-5 0  9995,2 50194  53.2173 175.5499 0001054  61.2303 245.5466 15.73205273  8877,6727.88,91.533,350.454,349.036,0.0
50194.0,STARLINK-3269,PAYLOAD,2022-01-26 06:00:00,15.73190835,0.0001357,53.215,173.9097,55.9486,339.9239,0.0006127,0.00086221,0.0,0 STARLINK-3269,1 50194U 21125AQ  22026.25001157  .00086221  00000-0  61270-3 0  9991,2 50194  53.2150 173.9097 0001357  55.9486 339.9239 15.73190835  8925,6727.920999999999,91.534,350.699,348.87300000000016,0.0
50194.0,STARLINK-3269,PAYLOAD,2022-01-26 14:00:01,15.73274453,0.0001385999999999,53.2151,172.2613,49.4856,75.3335,-0.00069447,-0.00097275,0.0,0 STARLINK-3269,1 50194U 21125AQ  22026.58334491 -.00097275  00000-0 -69447-3 0  9994,2 50194  53.2151 172.2613 0001386  49.4856  75.3335 15.73274453  8975,6727.683000000001,91.529,350.48,348.615,0.0
50194.0,STARLINK-3269,PAYLOAD,2022-01-26 21:05:43,15.73232154,0.0001554,53.2157,170.7969,41.0686,319.0451,0.0001418,0.00019354,0.0,0 STARLINK-3269,1 50194U 21125AQ  22026.87897398  .00019354  00000-0  14180-3 0  9990,2 50194  53.2157 170.7969 0001554  41.0686 319.0451 15.73232154  9558,6727.804,91.531,350.714,348.62300000000016,0.0
50194.0,STARLINK-3269,PAYLOAD,2022-01-26 22:00:00,15.73216106,0.0001426999999999,53.215,170.6126,40.236,173.5549,0.00017214,0.00023623,0.0,0 STARLINK-3269,1 50194U 21125AQ  22026.91667824  .00023623  00000-0  17214-3 0  9999,2 50194  53.2150 170.6126 0001427  40.2360 173.5549 15.73216106  9037,6727.849,91.532,350.6740000000001,348.754,0.0
50194.0,STARLINK-3269,PAYLOAD,2022-01-27 04:00:00,15.73242186,0.0001357,53.2155,169.3736,45.7017,144.8057,-0.00066245,-0.0009274,0.0,0 STARLINK-3269,1 50194U 21125AQ  22027.16667824 -.00092740  00000-0 -66245-3 0  9993,2 50194  53.2155 169.3736 0001357  45.7017 144.8057 15.73242186  9071,6727.775,91.531,350.55300000000005,348.727,0.0
50194.0,STARLINK-3269,PAYLOAD,2022-01-27 13:51:59,15.73202448,0.0001541,53.2157,167.3387,30.1339,329.9769,-1.9021e-05,-3.289e-05,0.0,0 STARLINK-3269,1 50194U 21125AQ  22027.57777351 -.00003289  00000-0 -19021-4 0  9996,2 50194  53.2157 167.3387 0001541  30.1339 329.9769 15.73202448  9661,6727.888000000001,91.533,350.79,348.716,0.0
50194.0,STARLINK-3269,PAYLOAD,2022-01-27 22:00:00,15.73161967,0.0001594,53.2149,165.6637,37.95,82.5875,0.00026156,0.00036187,0.0,0 STARLINK-3269,1 50194U 21125AQ  22027.91667824  .00036187  00000-0  26156-3 0  9994,2 50194  53.2149 165.6637 0001594  37.9500  82.5875 15.73161967  9181,6728.004,91.535,350.941,348.796,0.0
50194.0,STARLINK-3269,PAYLOAD,2022-01-28 12:00:00,15.73222533,0.0001473,53.2153,162.7761,44.04600000000001,142.0783,7.3545e-05,9.723e-05,0.0,0 STARLINK-3269,1 50194U 21125AQ  22028.50001157  .00009723  00000-0  73545-4 0  9992,2 50194  53.2153 162.7761 0001473  44.0460 142.0783 15.73222533  3677,6727.831,91.532,350.68699999999984,348.705,0.0
50194.0,STARLINK-3269,PAYLOAD,2022-01-28 22:00:00,15.73272955,0.0001740999999999,53.2151,160.7151,37.779,349.5448,-0.00047006,-0.00066282,0.0,0 STARLINK-3269,1 50194U 21125AQ  22028.91667824 -.00066282  00000-0 -47006-3 0  9993,2 50194  53.2151 160.7151 0001741  37.7790 349.5448 15.73272955  3663,6727.687,91.529,350.723,348.381,0.0
